ISS OBJECT XW           
1 66910U 98067XW  26119.54279235  .00401636  72599-4  11962-2 0  9995
2 66910  51.6157 162.5968 0011240  10.7491 349.3753 15.91777639 23213
ISS OBJECT XY           
1 66912U 98067XY  26119.84465419  .00144685  00000+0  92759-3 0  9996
2 66912  51.6231 166.2068 0008295   9.6098 350.5059 15.75267013 23187
KNACKSAT-2              
1 67683U 98067XZ  26119.85332383  .00037628  00000+0  53471-3 0  9992
2 67683  51.6295 176.8122 0012620  18.3620 341.7824 15.55930235 12749
CORAL                   
1 67684U 98067YA  26119.85743955  .00108809  00000+0  11382-2 0  9998
2 67684  51.6263 174.5837 0016571  13.2104 346.9321 15.63437611 12774
GXIBA-1                 
1 67685U 98067YB  26119.44349163  .00038936  00000+0  53572-3 0  9998
2 67685  51.6304 178.5742 0014510  14.6310 345.5099 15.56755934 12685
UITMSAT-2               
1 67686U 98067YC  26119.85059282  .00062305  00000+0  79799-3 0  9990
2 67686  51.6294 176.0457 0012028 359.3140   0.7834 15.58501931 12755
HMU-SAT2                
1 67687U 98067YD  26119.39039401  .00037972  00000+0  53069-3 0  9995
2 67687  51.6301 178.9748 0010626 357.6460   2.4480 15.56403043 12598
LEOPARD                 
1 67688U 98067YE  26119.35657596  .00041576  00000+0  55306-3 0  9994
2 67688  51.6297 178.7499 0011273 356.7500   3.3417 15.57679602 12595
CREW DRAGON 12          
1 67796U 26031A   26119.68381909  .00007324  00000+0  14081-3 0  9992
2 67796  51.6318 180.1788 0007117   4.9077 355.1979 15.49024031564404
PROGRESS-MS 33          
1 68319U 26058A   26119.68381909  .00007324  00000+0  14081-3 0  9993
2 68319  51.6318 180.1788 0007117   4.9077 355.1979 15.49024031  5912
CYGNUS NG-24            
1 68689U 26079A   26119.49027628  .00007115  00000+0  13705-3 0  9990
2 68689  51.6319 181.1364 0007113   4.2135 355.8912 15.49020533  2855
PROGRESS-MS 34          
1 68837U 26093A   26119.49027628  .00007115  00000+0  13705-3 0  9991
2 68837  51.6319 181.1364 0007113   4.2135 355.8912 15.49020533   353
