[{"OBJECT_NAME":"ISS OBJECT XW","OBJECT_ID":"1998-067XW","EPOCH":"2026-04-29T13:01:37.259040","MEAN_MOTION":15.91777639,"ECCENTRICITY":0.001124,"INCLINATION":51.6157,"RA_OF_ASC_NODE":162.5968,"ARG_OF_PERICENTER":10.7491,"MEAN_ANOMALY":349.3753,"EPHEMERIS_TYPE":0,"CLASSIFICATION_TYPE":"U","NORAD_CAT_ID":66910,"ELEMENT_SET_NO":999,"REV_AT_EPOCH":2321,"BSTAR":0.0011962,"MEAN_MOTION_DOT":0.00401636,"MEAN_MOTION_DDOT":7.2599e-5},{"OBJECT_NAME":"ISS OBJECT XY","OBJECT_ID":"1998-067XY","EPOCH":"2026-04-29T20:16:18.122016","MEAN_MOTION":15.75267013,"ECCENTRICITY":0.0008295,"INCLINATION":51.6231,"RA_OF_ASC_NODE":166.2068,"ARG_OF_PERICENTER":9.6098,"MEAN_ANOMALY":350.5059,"EPHEMERIS_TYPE":0,"CLASSIFICATION_TYPE":"U","NORAD_CAT_ID":66912,"ELEMENT_SET_NO":999,"REV_AT_EPOCH":2318,"BSTAR":0.00092759,"MEAN_MOTION_DOT":0.00144685,"MEAN_MOTION_DDOT":0},{"OBJECT_NAME":"KNACKSAT-2","OBJECT_ID":"1998-067XZ","EPOCH":"2026-04-29T20:28:47.178912","MEAN_MOTION":15.55930235,"ECCENTRICITY":0.001262,"INCLINATION":51.6295,"RA_OF_ASC_NODE":176.8122,"ARG_OF_PERICENTER":18.362,"MEAN_ANOMALY":341.7824,"EPHEMERIS_TYPE":0,"CLASSIFICATION_TYPE":"U","NORAD_CAT_ID":67683,"ELEMENT_SET_NO":999,"REV_AT_EPOCH":1274,"BSTAR":0.00053471,"MEAN_MOTION_DOT":0.00037628,"MEAN_MOTION_DDOT":0},{"OBJECT_NAME":"CORAL","OBJECT_ID":"1998-067YA","EPOCH":"2026-04-29T20:34:42.777120","MEAN_MOTION":15.63437611,"ECCENTRICITY":0.0016571,"INCLINATION":51.6263,"RA_OF_ASC_NODE":174.5837,"ARG_OF_PERICENTER":13.2104,"MEAN_ANOMALY":346.9321,"EPHEMERIS_TYPE":0,"CLASSIFICATION_TYPE":"U","NORAD_CAT_ID":67684,"ELEMENT_SET_NO":999,"REV_AT_EPOCH":1277,"BSTAR":0.0011382,"MEAN_MOTION_DOT":0.00108809,"MEAN_MOTION_DDOT":0},{"OBJECT_NAME":"GXIBA-1","OBJECT_ID":"1998-067YB","EPOCH":"2026-04-29T10:38:37.676832","MEAN_MOTION":15.56755934,"ECCENTRICITY":0.00145104,"INCLINATION":51.6304,"RA_OF_ASC_NODE":178.5742,"ARG_OF_PERICENTER":14.631,"MEAN_ANOMALY":345.5099,"EPHEMERIS_TYPE":0,"CLASSIFICATION_TYPE":"U","NORAD_CAT_ID":67685,"ELEMENT_SET_NO":999,"REV_AT_EPOCH":1268,"BSTAR":0.000535724,"MEAN_MOTION_DOT":0.00038936,"MEAN_MOTION_DDOT":0},{"OBJECT_NAME":"UITMSAT-2","OBJECT_ID":"1998-067YC","EPOCH":"2026-04-29T20:24:51.219648","MEAN_MOTION":15.58501931,"ECCENTRICITY":0.0012028,"INCLINATION":51.6294,"RA_OF_ASC_NODE":176.0457,"ARG_OF_PERICENTER":359.314,"MEAN_ANOMALY":0.7834,"EPHEMERIS_TYPE":0,"CLASSIFICATION_TYPE":"U","NORAD_CAT_ID":67686,"ELEMENT_SET_NO":999,"REV_AT_EPOCH":1275,"BSTAR":0.00079799,"MEAN_MOTION_DOT":0.00062305,"MEAN_MOTION_DDOT":0},{"OBJECT_NAME":"HMU-SAT2","OBJECT_ID":"1998-067YD","EPOCH":"2026-04-29T09:22:10.042464","MEAN_MOTION":15.56403043,"ECCENTRICITY":0.0010626,"INCLINATION":51.6301,"RA_OF_ASC_NODE":178.9748,"ARG_OF_PERICENTER":357.646,"MEAN_ANOMALY":2.448,"EPHEMERIS_TYPE":0,"CLASSIFICATION_TYPE":"U","NORAD_CAT_ID":67687,"ELEMENT_SET_NO":999,"REV_AT_EPOCH":1259,"BSTAR":0.0005306857,"MEAN_MOTION_DOT":0.00037972,"MEAN_MOTION_DDOT":0},{"OBJECT_NAME":"LEOPARD","OBJECT_ID":"1998-067YE","EPOCH":"2026-04-29T08:33:28.162944","MEAN_MOTION":15.57679602,"ECCENTRICITY":0.00112735,"INCLINATION":51.6297,"RA_OF_ASC_NODE":178.7499,"ARG_OF_PERICENTER":356.75,"MEAN_ANOMALY":3.3417,"EPHEMERIS_TYPE":0,"CLASSIFICATION_TYPE":"U","NORAD_CAT_ID":67688,"ELEMENT_SET_NO":999,"REV_AT_EPOCH":1259,"BSTAR":0.00055305551,"MEAN_MOTION_DOT":0.00041576,"MEAN_MOTION_DDOT":0},{"OBJECT_NAME":"CREW DRAGON 12","OBJECT_ID":"2026-031A","EPOCH":"2026-04-29T16:24:41.969376","MEAN_MOTION":15.49024031,"ECCENTRICITY":0.0007117,"INCLINATION":51.6318,"RA_OF_ASC_NODE":180.1788,"ARG_OF_PERICENTER":4.9077,"MEAN_ANOMALY":355.1979,"EPHEMERIS_TYPE":0,"CLASSIFICATION_TYPE":"U","NORAD_CAT_ID":67796,"ELEMENT_SET_NO":999,"REV_AT_EPOCH":56440,"BSTAR":0.00014081,"MEAN_MOTION_DOT":7.324e-5,"MEAN_MOTION_DDOT":0},{"OBJECT_NAME":"PROGRESS-MS 33","OBJECT_ID":"2026-058A","EPOCH":"2026-04-29T16:24:41.969376","MEAN_MOTION":15.49024031,"ECCENTRICITY":0.0007117,"INCLINATION":51.6318,"RA_OF_ASC_NODE":180.1788,"ARG_OF_PERICENTER":4.9077,"MEAN_ANOMALY":355.1979,"EPHEMERIS_TYPE":0,"CLASSIFICATION_TYPE":"U","NORAD_CAT_ID":68319,"ELEMENT_SET_NO":999,"REV_AT_EPOCH":591,"BSTAR":0.00014081,"MEAN_MOTION_DOT":7.324e-5,"MEAN_MOTION_DDOT":0},{"OBJECT_NAME":"CYGNUS NG-24","OBJECT_ID":"2026-079A","EPOCH":"2026-04-29T11:45:59.870592","MEAN_MOTION":15.49020533,"ECCENTRICITY":0.00071134,"INCLINATION":51.6319,"RA_OF_ASC_NODE":181.1364,"ARG_OF_PERICENTER":4.2135,"MEAN_ANOMALY":355.8912,"EPHEMERIS_TYPE":0,"CLASSIFICATION_TYPE":"U","NORAD_CAT_ID":68689,"ELEMENT_SET_NO":999,"REV_AT_EPOCH":285,"BSTAR":0.00013704844,"MEAN_MOTION_DOT":7.115e-5,"MEAN_MOTION_DDOT":0},{"OBJECT_NAME":"PROGRESS-MS 34","OBJECT_ID":"2026-093A","EPOCH":"2026-04-29T11:45:59.870592","MEAN_MOTION":15.49020533,"ECCENTRICITY":0.00071134,"INCLINATION":51.6319,"RA_OF_ASC_NODE":181.1364,"ARG_OF_PERICENTER":4.2135,"MEAN_ANOMALY":355.8912,"EPHEMERIS_TYPE":0,"CLASSIFICATION_TYPE":"U","NORAD_CAT_ID":68837,"ELEMENT_SET_NO":999,"REV_AT_EPOCH":35,"BSTAR":0.00013704844,"MEAN_MOTION_DOT":7.115e-5,"MEAN_MOTION_DDOT":0}]
